{"type": "FeatureCollection", "features": [ {"type": "Feature", "properties": {"norad_id": 37216, "name": "COSMO-SKYMED 4", "group": "resource", "lat": 37.21147065992625, "lon": -7.166466506582038, "alt_km": 619.4406262909406, "timestamp": "2025-12-11T10:53:15.541663+00:00", "meta": {"OBJECT_NAME": "COSMO-SKYMED 4", "OBJECT_ID": "2010-060A", "EPOCH": "2025-12-11T03:46:01.233408", "MEAN_MOTION": 14.82166299, "ECCENTRICITY": 0.0001416, "INCLINATION": 97.8807, "RA_OF_ASC_NODE": 166.5039, "ARG_OF_PERICENTER": 77.3056, "MEAN_ANOMALY": 282.8316, "EPHEMERIS_TYPE": 0, "CLASSIFICATION_TYPE": "U", "NORAD_CAT_ID": 37216, "ELEMENT_SET_NO": 999, "REV_AT_EPOCH": 81671, "BSTAR": 0.00012603, "MEAN_MOTION_DOT": 9.52e-06, "MEAN_MOTION_DDOT": 0}, "tle": {"line1": "1 37216U 10060A   25345.15695872  .00000952  00000+0  12603-3 0  9998", "line2": "2 37216  97.8807 166.5039 0001416  77.3056 282.8316 14.82166299816711"}}, "geometry": {"type": "Point", "coordinates": [-7.166466506582038, 37.21147065992625]}}, {"type": "Feature", "properties": {"norad_id": 37387, "name": "RESOURCESAT-2", "group": "resource", "lat": 26.69257925460033, "lon": 44.55044155543706, "alt_km": 814.4579199542868, "timestamp": "2025-12-11T10:53:15.541675+00:00", "meta": {"OBJECT_NAME": "RESOURCESAT-2", "OBJECT_ID": "2011-015A", "EPOCH": "2025-12-11T04:00:15.270624", "MEAN_MOTION": 14.21596163, "ECCENTRICITY": 0.0006509, "INCLINATION": 98.7879, "RA_OF_ASC_NODE": 48.7257, "ARG_OF_PERICENTER": 46.6746, "MEAN_ANOMALY": 313.4973, "EPHEMERIS_TYPE": 0, "CLASSIFICATION_TYPE": "U", "NORAD_CAT_ID": 37387, "ELEMENT_SET_NO": 999, "REV_AT_EPOCH": 75946, "BSTAR": 0.00011846, "MEAN_MOTION_DOT": 2.15e-06, "MEAN_MOTION_DDOT": 0}, "tle": {"line1": "1 37387U 11015A   25345.16684341  .00000215  00000+0  11846-3 0  9998", "line2": "2 37387  98.7879  48.7257 0006509  46.6746 313.4973 14.21596163759463"}}, "geometry": {"type": "Point", "coordinates": [44.55044155543706, 26.69257925460033]}}, {"type": "Feature", "properties": {"norad_id": 37781, "name": "HAIYANG-2A", "group": "resource", "lat": -80.28083673929032, "lon": 60.28151709904871, "alt_km": 976.5418253835287, "timestamp": "2025-12-11T10:53:15.541686+00:00", "meta": {"OBJECT_NAME": "HAIYANG-2A", "OBJECT_ID": "2011-043A", "EPOCH": "2025-12-11T04:20:40.342272", "MEAN_MOTION": 13.78835787, "ECCENTRICITY": 0.0001675, "INCLINATION": 99.338, "RA_OF_ASC_NODE": 346.1392, "ARG_OF_PERICENTER": 84.6844, "MEAN_ANOMALY": 275.4498, "EPHEMERIS_TYPE": 0, "CLASSIFICATION_TYPE": "U", "NORAD_CAT_ID": 37781, "ELEMENT_SET_NO": 999, "REV_AT_EPOCH": 72077, "BSTAR": 0.00028509, "MEAN_MOTION_DOT": 2.46e-06, "MEAN_MOTION_DDOT": 0}, "tle": {"line1": "1 37781U 11043A   25345.18102248  .00000246  00000+0  28509-3 0  9998", "line2": "2 37781  99.3380 346.1392 0001675  84.6844 275.4498 13.78835787720770"}}, "geometry": {"type": "Point", "coordinates": [60.28151709904871, -80.28083673929032]}}, {"type": "Feature", "properties": {"norad_id": 37791, "name": "RASAT", "group": "resource", "lat": -22.48797602664021, "lon": 78.09516936542583, "alt_km": 673.5084237586716, "timestamp": "2025-12-11T10:53:15.541697+00:00", "meta": {"OBJECT_NAME": "RASAT", "OBJECT_ID": "2011-044D", "EPOCH": "2025-12-11T06:08:40.384608", "MEAN_MOTION": 14.67906349, "ECCENTRICITY": 0.0021896, "INCLINATION": 98.0649, "RA_OF_ASC_NODE": 74.5355, "ARG_OF_PERICENTER": 69.4201, "MEAN_ANOMALY": 304.4833, "EPHEMERIS_TYPE": 0, "CLASSIFICATION_TYPE": "U", "NORAD_CAT_ID": 37791, "ELEMENT_SET_NO": 999, "REV_AT_EPOCH": 76561, "BSTAR": 0.00018545, "MEAN_MOTION_DOT": 1.015e-05, "MEAN_MOTION_DDOT": 0}, "tle": {"line1": "1 37791U 11044D   25345.25602297  .00001015  00000+0  18545-3 0  9991", "line2": "2 37791  98.0649  74.5355 0021896  69.4201 304.4833 14.67906349765611"}}, "geometry": {"type": "Point", "coordinates": [78.09516936542583, -22.48797602664021]}}, {"type": "Feature", "properties": {"norad_id": 37841, "name": "SRMSAT", "group": "resource", "lat": 1.7765095928525425, "lon": 120.63760981390072, "alt_km": 848.2081453869505, "timestamp": "2025-12-11T10:53:15.541707+00:00", "meta": {"OBJECT_NAME": "SRMSAT", "OBJECT_ID": "2011-058D", "EPOCH": "2025-12-10T16:20:28.552992", "MEAN_MOTION": 14.11510466, "ECCENTRICITY": 0.00117159, "INCLINATION": 19.9705, "RA_OF_ASC_NODE": 120.4116, "ARG_OF_PERICENTER": 290.6404, "MEAN_ANOMALY": 99.2293, "EPHEMERIS_TYPE": 0, "CLASSIFICATION_TYPE": "U", "NORAD_CAT_ID": 37841, "ELEMENT_SET_NO": 999, "REV_AT_EPOCH": 73115, "BSTAR": 0.00014227219, "MEAN_MOTION_DOT": 5.27e-06, "MEAN_MOTION_DDOT": 0}, "tle": {"line1": "1 37841U 11058D   25344.68088603  .00000527  00000+0  14227-3 0  9997", "line2": "2 37841  19.9705 120.4116 0011715 290.6404  99.2293 14.11510466731151"}}, "geometry": {"type": "Point", "coordinates": [120.63760981390072, 1.7765095928525425]}}, {"type": "Feature", "properties": {"norad_id": 38012, "name": "PLEIADES 1A", "group": "resource", "lat": 3.84456614810699, "lon": -121.2045464471829, "alt_km": 700.4962269952157, "timestamp": "2025-12-11T10:53:15.541718+00:00", "meta": {"OBJECT_NAME": "PLEIADES 1A", "OBJECT_ID": "2011-076F", "EPOCH": "2025-12-11T05:26:30.964128", "MEAN_MOTION": 14.58558683, "ECCENTRICITY": 0.0001299, "INCLINATION": 98.182, "RA_OF_ASC_NODE": 58.0181, "ARG_OF_PERICENTER": 74.3062, "MEAN_ANOMALY": 350.9479, "EPHEMERIS_TYPE": 0, "CLASSIFICATION_TYPE": "U", "NORAD_CAT_ID": 38012, "ELEMENT_SET_NO": 999, "REV_AT_EPOCH": 74459, "BSTAR": 0.00012785, "MEAN_MOTION_DOT": 5.49e-06, "MEAN_MOTION_DDOT": 0}, "tle": {"line1": "1 38012U 11076F   25345.22674727  .00000549  00000+0  12785-3 0  9998", "line2": "2 38012  98.1820  58.0181 0001299  74.3062 350.9479 14.58558683744599"}}, "geometry": {"type": "Point", "coordinates": [-121.2045464471829, 3.84456614810699]}}, {"type": "Feature", "properties": {"norad_id": 38038, "name": "ZIYUAN 1-02C (ZY 1-02C)", "group": "resource", "lat": 1.0607602628183401, "lon": -128.352028047469, "alt_km": 763.8387295476323, "timestamp": "2025-12-11T10:53:15.541730+00:00", "meta": {"OBJECT_NAME": "ZIYUAN 1-02C (ZY 1-02C)", "OBJECT_ID": "2011-079A", "EPOCH": "2025-12-11T05:24:09.975744", "MEAN_MOTION": 14.38008929, "ECCENTRICITY": 0.0007099, "INCLINATION": 98.433, "RA_OF_ASC_NODE": 51.2663, "ARG_OF_PERICENTER": 142.5133, "MEAN_ANOMALY": 293.8343, "EPHEMERIS_TYPE": 0, "CLASSIFICATION_TYPE": "U", "NORAD_CAT_ID": 38038, "ELEMENT_SET_NO": 999, "REV_AT_EPOCH": 73219, "BSTAR": 0.00022438, "MEAN_MOTION_DOT": 6.36e-06, "MEAN_MOTION_DDOT": 0}, "tle": {"line1": "1 38038U 11079A   25345.22511546  .00000636  00000+0  22438-3 0  9991", "line2": "2 38038  98.4330  51.2663 0007099 142.5133 293.8343 14.38008929732196"}}, "geometry": {"type": "Point", "coordinates": [-128.352028047469, 1.0607602628183401]}}, {"type": "Feature", "properties": {"norad_id": 38046, "name": "ZIYUAN 3-1 (ZY 3-1)", "group": "resource", "lat": 82.71310333916527, "lon": -48.011643064707926, "alt_km": 356.3683702995704, "timestamp": "2025-12-11T10:53:15.541741+00:00", "meta": {"OBJECT_NAME": "ZIYUAN 3-1 (ZY 3-1)", "OBJECT_ID": "2012-001A", "EPOCH": "2025-12-11T04:22:28.889184", "MEAN_MOTION": 15.68251652, "ECCENTRICITY": 0.0001837, "INCLINATION": 97.1754, "RA_OF_ASC_NODE": 51.5628, "ARG_OF_PERICENTER": 358.7864, "MEAN_ANOMALY": 1.3393, "EPHEMERIS_TYPE": 0, "CLASSIFICATION_TYPE": "U", "NORAD_CAT_ID": 38046, "ELEMENT_SET_NO": 999, "REV_AT_EPOCH": 77472, "BSTAR": 0.00090208, "MEAN_MOTION_DOT": 0.00101697, "MEAN_MOTION_DDOT": 0}, "tle": {"line1": "1 38046U 12001A   25345.18227881  .00101697  00000+0  90208-3 0  9996", "line2": "2 38046  97.1754  51.5628 0001837 358.7864   1.3393 15.68251652774720"}}, "geometry": {"type": "Point", "coordinates": [-48.011643064707926, 82.71310333916527]}}, {"type": "Feature", "properties": {"norad_id": 38338, "name": "ARIRANG-3 (KOMPSAT-3)", "group": "resource", "lat": 57.82952188830301, "lon": -73.43955633642184, "alt_km": 681.1320728749197, "timestamp": "2025-12-11T10:53:15.541752+00:00", "meta": {"OBJECT_NAME": "ARIRANG-3 (KOMPSAT-3)", "OBJECT_ID": "2012-025B", "EPOCH": "2025-12-11T04:02:53.460384", "MEAN_MOTION": 14.6170926, "ECCENTRICITY": 0.0005467, "INCLINATION": 98.332, "RA_OF_ASC_NODE": 299.7463, "ARG_OF_PERICENTER": 343.9295, "MEAN_ANOMALY": 16.1731, "EPHEMERIS_TYPE": 0, "CLASSIFICATION_TYPE": "U", "NORAD_CAT_ID": 38338, "ELEMENT_SET_NO": 999, "REV_AT_EPOCH": 72387, "BSTAR": 0.00019839, "MEAN_MOTION_DOT": 9.4e-06, "MEAN_MOTION_DDOT": 0}, "tle": {"line1": "1 38338U 12025B   25345.16867431  .00000940  00000+0  19839-3 0  9995", "line2": "2 38338  98.3320 299.7463 0005467 343.9295  16.1731 14.61709260723871"}}, "geometry": {"type": "Point", "coordinates": [-73.43955633642184, 57.82952188830301]}}, {"type": "Feature", "properties": {"norad_id": 38709, "name": "EXACTVIEW-1 (ADS-1B)", "group": "resource", "lat": -45.968106662125194, "lon": -95.5794466922784, "alt_km": 820.6170469719946, "timestamp": "2025-12-11T10:53:15.541763+00:00", "meta": {"OBJECT_NAME": "EXACTVIEW-1 (ADS-1B)", "OBJECT_ID": "2012-039C", "EPOCH": "2025-12-11T04:46:15.881088", "MEAN_MOTION": 14.24907086, "ECCENTRICITY": 0.0010756, "INCLINATION": 98.9635, "RA_OF_ASC_NODE": 93.5565, "ARG_OF_PERICENTER": 358.6728, "MEAN_ANOMALY": 1.442, "EPHEMERIS_TYPE": 0, "CLASSIFICATION_TYPE": "U", "NORAD_CAT_ID": 38709, "ELEMENT_SET_NO": 999, "REV_AT_EPOCH": 69593, "BSTAR": 0.00013327, "MEAN_MOTION_DOT": 2.65e-06, "MEAN_MOTION_DDOT": 0}, "tle": {"line1": "1 38709U 12039C   25345.19879492  .00000265  00000+0  13327-3 0  9991", "line2": "2 38709  98.9635  93.5565 0010756 358.6728   1.4420 14.24907086695934"}}, "geometry": {"type": "Point", "coordinates": [-95.5794466922784, -45.968106662125194]}}]}